FENGYUN 1C DEB          
1 30164U 99025TV  17345.44878477  .00002909  00000-0  19814-2 0  9993
2 30164  99.5198 151.8852 0418745 307.9431  48.4557 13.65573108534209
